[{"OBJECT_NAME":"STARLINK-5671","OBJECT_ID":"2023-013J","EPOCH":"2026-03-08T00:05:56.981472","MEAN_MOTION":15.02536737,"ECCENTRICITY":0.0001158,"INCLINATION":43.0043,"RA_OF_ASC_NODE":309.684,"ARG_OF_PERICENTER":266.2254,"MEAN_ANOMALY":93.8456,"EPHEMERIS_TYPE":0,"CLASSIFICATION_TYPE":"U","NORAD_CAT_ID":55339,"ELEMENT_SET_NO":999,"REV_AT_EPOCH":17145,"BSTAR":3.9786178e-5,"MEAN_MOTION_DOT":3.34e-6,"MEAN_MOTION_DDOT":0},{"OBJECT_NAME":"CZ-4B DEB","OBJECT_ID":"1999-057Q","EPOCH":"2026-03-09T11:26:54.640320","MEAN_MOTION":15.06874272,"ECCENTRICITY":0.0020008,"INCLINATION":98.6841,"RA_OF_ASC_NODE":262.2845,"ARG_OF_PERICENTER":336.9186,"MEAN_ANOMALY":80.9466,"EPHEMERIS_TYPE":0,"CLASSIFICATION_TYPE":"U","NORAD_CAT_ID":26128,"ELEMENT_SET_NO":999,"REV_AT_EPOCH":40054,"BSTAR":0.00062227426,"MEAN_MOTION_DOT":9.256e-5,"MEAN_MOTION_DDOT":0}]
